{
  "agencies": [
    {
      "region": "MEDITERRANEE",
      "title": "Agence d'Aix-en-Provence",
      "adresse": "Arteparc de Bachasson",
      "adresse_2": "Bat D - Rue de la Carrière de Bachasson",
      "code_postal": "13590",
      "ville": "Meyreuil",
      "lat": "43.490402",
      "lng": "5.528712"
    },
    {
      "region": "CENTRE EST",
      "title": "Agence d'Auxerre",
      "adresse": "28 bis, avenue Denfert-Rochereau",
      "code_postal": "89000",
      "ville": "Auxerre",
      "lat": "47.8012",
      "lng": "3.5637"
    },
    {
      "region": "MEDITERRANEE",
      "title": "Agence d'Avignon",
      "adresse": "Centre d'Affaires St Ruf 1",
      "adresse_2": "147, av. de Tarascon",
      "adresse_3": "BP 50139",
      "code_postal": "84007",
      "ville": "Avignon Cedex",
      "lat": "43.9336",
      "lng": "4.81016"
    },
    {
      "region": "CENTRE EST",
      "title": "Agence d'Epinal",
      "adresse": "Parc Economique Le Saut le Cerf",
      "adresse_2": "38 rue Léo Valentin - BP 1189",
      "code_postal": "88052",
      "ville": "Epinal Cedex 9",
      "lat": "48.2023",
      "lng": "6.463719999999967"
    },
    {
      "region": "SUD OUEST",
      "title": "Agence de Agen Centre",
      "adresse": "39 rue Palissy",
      "code_postal": "47000",
      "ville": "Agen",
      "lat": "44.2005",
      "lng": "0.61539300000004"
    },
    {
      "region": "SUD OUEST",
      "title": "Agence de Agen Foulayronnes",
      "adresse": "1 rue Marcel Pagnol",
      "code_postal": "47510",
      "ville": "Foulayronnes",
      "lat": "44.2328",
      "lng": "0.640984"
    },
    {
      "region": "DAUPHINE SAVOIE",
      "title": "Agence de Aix-les-Bains",
      "adresse": "29 place Georges Clémenceau",
      "code_postal": "73100",
      "ville": "Aix-les-Bains",
      "lat": "45.693129",
      "lng": "5.910941"
    },
    {
      "region": "DAUPHINE SAVOIE",
      "title": "Agence de Albertville",
      "adresse": "8 avenue Victor Hugo",
      "code_postal": "73200",
      "ville": "Albertville",
      "lat": "45.6665321",
      "lng": "6.462053278"
    },
    {
      "region": "NORMANDIE",
      "title": "Agence de Alençon",
      "adresse": "30, rue d'Alençon",
      "code_postal": "61250",
      "ville": "Condé-sur-Sarthe",
      "lat": "48.43451948",
      "lng": "0.056716565"
    },
    {
      "region": "NORD DE France",
      "title": "Agence de Amiens",
      "adresse": "53 avenue d'Italie",
      "code_postal": "80000",
      "ville": "Amiens",
      "lat": "49.8726",
      "lng": "2.28211"
    },
    {
      "region": "OUEST ATLANTIQUE",
      "title": "Agence de Ancenis",
      "adresse": "540, bd du Docteur Moutel",
      "adresse_2": "BP 90144",
      "code_postal": "44154",
      "ville": "Ancenis Cedex",
      "lat": "47.37089778",
      "lng": "-1.177048296"
    },
    {
      "region": "CENTRE OUEST",
      "title": "Agence de Angers",
      "adresse": "2 boulevard Albert Blanchoin",
      "adresse_2": "BP 61055",
      "code_postal": "49000",
      "ville": "Angers",
      "lat": "47.4446677",
      "lng": "-0.5506238"
    },
    {
      "region": "CENTRE OUEST",
      "title": "Agence de Angers Est",
      "adresse": "ZA La Suzerolle",
      "adresse_2": "BP 80017",
      "code_postal": "49140",
      "ville": "Seiches Sur Le Loir",
      "lat": "47.5578533",
      "lng": "-0.333767572"
    },
    {
      "region": "CENTRE OUEST",
      "title": "Agence de Angers Ouest",
      "adresse": "Parc d'activités d'Angers - Beaucouzé",
      "adresse_2": "Parc Industriel - secteur de la Bourrée",
      "adresse_3": "4, rue du Tertre",
      "code_postal": "49070",
      "ville": "Beaucouzé",
      "lat": "47.45475468",
      "lng": "-0.61441421"
    },
    {
      "region": "SUD OUEST",
      "title": "Agence de Angoulême",
      "adresse": "69 Impasse Joseph Niepce",
      "code_postal": "16000",
      "ville": "Angoulême",
      "lat": "45.6265",
      "lng": "0.15238299999999"
    },
    {
      "region": "DAUPHINE SAVOIE",
      "title": "Agence de Annecy",
      "adresse": "Impasse la Ravoire",
      "adresse_2": "Parc d'activité la Ravoire",
      "code_postal": "74370",
      "ville": "Epagny Metz-Tessy",
      "lat": "45.94657013",
      "lng": "6.122266439"
    },
    {
      "region": "DAUPHINE SAVOIE",
      "title": "Agence de Arâches-la-Frasse",
      "adresse": "3230 route de la Barliette",
      "code_postal": "74300",
      "ville": "Les Carroz",
      "lat": "46.0383",
      "lng": "6.63608"
    },
    {
      "region": "CENTRE EST",
      "title": "Agence de Arc-lès-Gray",
      "adresse": "16 Rue des Giranaux",
      "adresse_2": "ZI les Giranaux BP 10",
      "code_postal": "70101",
      "ville": "Gray Cedex",
      "lat": "47.454794",
      "lng": "5.595822"
    },
    {
      "region": "NORMANDIE",
      "title": "Agence de Argentan - Point C",
      "adresse": "6 place Vimal du Bouchet",
      "code_postal": "61200",
      "ville": "Argentan",
      "lat": "48.742268",
      "lng": "-0.020442"
    },
    {
      "region": "NORD DE France",
      "title": "Agence de Armentières",
      "adresse": "189 Boulevard Faidherbe",
      "adresse_2": "BP 80027",
      "code_postal": "59426",
      "ville": "Armentières",
      "lat": "50.6876",
      "lng": "2.86592"
    },
    {
      "region": "NORD DE France",
      "title": "Agence de Arras",
      "adresse": "Zone Industrielle Est",
      "adresse_2": "5000, rue Hans Geiger",
      "adresse_3": "BP 20091",
      "code_postal": "62003",
      "ville": "Arras Cedex",
      "lat": "50.2878",
      "lng": "2.80236"
    },
    {
      "region": "DAUPHINE SAVOIE",
      "title": "Agence de Aubenas",
      "adresse": "425 chemin des Traverses",
      "code_postal": "7200",
      "ville": "Lachapelle-Sous-Aubenas",
      "lat": "44.573421",
      "lng": "4.371976"
    },
    {
      "region": "CENTRE EST",
      "title": "Agence de Audincourt",
      "adresse": "8 bis rue Duvernoy",
      "code_postal": "25400",
      "ville": "Audincourt",
      "lat": "47.47991",
      "lng": "6.842438"
    },
    {
      "region": "NORMANDIE",
      "title": "Agence de Avranches",
      "adresse": "ZA la Porrionais",
      "adresse_2": "BP 440",
      "code_postal": "50304",
      "ville": "Avranches Cedex",
      "lat": "48.689904",
      "lng": "-1.367089"
    },
    {
      "region": "CENTRE OUEST",
      "title": "Agence de Baugé",
      "adresse": "Route d'Angers",
      "adresse_2": "Chemin de Rigné",
      "code_postal": "49150",
      "ville": "Baugé",
      "lat": "47.54680413",
      "lng": "-0.1132286"
    },
    {
      "region": "SUD OUEST",
      "title": "Agence de Bayonne",
      "adresse": "6 bis chemin de Hayet",
      "adresse_2": "Lot B-05",
      "code_postal": "64100",
      "ville": "Bayonne",
      "lat": "43.493",
      "lng": "-1.4521099999999"
    },
    {
      "region": "CENTRE OUEST",
      "title": "Agence de Beaupréau",
      "adresse": "20 rue Jules Verne",
      "code_postal": "49600",
      "ville": "Beaupréau-en-Mauges",
      "lat": "47.20165686",
      "lng": "-0.993363502"
    },
    {
      "region": "SUD OUEST",
      "title": "Agence de Bergerac",
      "adresse": "8 rue Emile Vieillefont",
      "adresse_2": "BP 217",
      "code_postal": "24102",
      "ville": "Bergerac Cedex",
      "lat": "44.8493",
      "lng": "0.48786900000005"
    },
    {
      "region": "CENTRE EST",
      "title": "Agence de Besançon",
      "adresse": "7 rue Auguste Jouchoux",
      "adresse_2": "Parc Slava",
      "code_postal": "25000",
      "ville": "Besançon",
      "lat": "47.2353597",
      "lng": "5.9854458"
    },
    {
      "region": "NORD DE France",
      "title": "Agence de Béthune",
      "adresse": "Parc d'Entreprises de l'Horlogerie",
      "adresse_2": "Rue de l'Horlogerie",
      "adresse_3": "BP 80164",
      "code_postal": "62403",
      "ville": "Béthune Cedex",
      "lat": "50.519467",
      "lng": "2.648792"
    },
    {
      "region": "CENTRE OUEST",
      "title": "Agence de Blois",
      "adresse": "1 rue Copernic",
      "adresse_2": "La Chaussée Saint Victor",
      "adresse_3": "CS 13409",
      "code_postal": "41034",
      "ville": "Blois Cedex",
      "lat": "47.615783",
      "lng": "1.349032"
    },
    {
      "region": "NORMANDIE",
      "title": "Agence de Bois-Guillaume",
      "adresse": "23, rue Victor Hugo",
      "code_postal": "76230",
      "ville": "Bois-Guillaume",
      "lat": "49.477452",
      "lng": "1.106762"
    },
    {
      "region": "SUD OUEST",
      "title": "Agence de Bordeaux",
      "adresse": "19, bd Alfred Daney",
      "adresse_2": "BP 50241",
      "code_postal": "33000",
      "ville": "Bordeaux Cedex",
      "lat": "44.8666",
      "lng": "-0.57441800000004"
    },
    {
      "region": "CENTRE EST",
      "title": "Agence de Bourbonne-les-Bains",
      "adresse": "92 rue Vellonne",
      "code_postal": "52400",
      "ville": "Bourbonne-les-Bains",
      "lat": "47.952611",
      "lng": "5.743349"
    },
    {
      "region": "DAUPHINE SAVOIE",
      "title": "Agence de Bourg-Saint-Maurice",
      "adresse": "116, avenue du Stade",
      "code_postal": "73700",
      "ville": "Bourg-Saint-Maurice",
      "lat": "45.62047594",
      "lng": "6.771331996"
    },
    {
      "region": "BRETAGNE",
      "title": "Agence de Brest",
      "adresse": "2 rue Rosemonde Gérard",
      "adresse_2": "CS 20027",
      "adresse_3": "ZAC de Kergaradec",
      "code_postal": "29801",
      "ville": "Brest Cedex 9",
      "lat": "48.4295",
      "lng": "-4.4594600000000355"
    },
    {
      "region": "ALSACE - MOSELLE",
      "title": "Agence de Brumath",
      "adresse": "15A rue du Général de Gaulle",
      "code_postal": "67170",
      "ville": "Brumath",
      "lat": "48.73291",
      "lng": "7.709229"
    },
    {
      "region": "NORMANDIE",
      "title": "Agence de Caen",
      "adresse": "9, rue Ferdinand Buisson",
      "adresse_2": "BP 20405",
      "adresse_3": "SAINT-CONTEST",
      "code_postal": "14654",
      "ville": "Carpiquet Cedex",
      "lat": "49.206131",
      "lng": "-0.390349"
    },
    {
      "region": "COTE D'AZUR",
      "title": "Agence de Cannes",
      "adresse": "32, boulevard de Lorraine",
      "adresse_2": "BP 10078",
      "code_postal": "6403",
      "ville": "Cannes Cedex",
      "lat": "43.55305974",
      "lng": "7.027765872"
    },
    {
      "region": "SUD OUEST",
      "title": "Agence de Casteljaloux",
      "adresse": "16 rue Henri IV",
      "code_postal": "47700",
      "ville": "Casteljaloux",
      "lat": "44.316",
      "lng": "0.080857000000037"
    },
    {
      "region": "OUEST ATLANTIQUE",
      "title": "Agence de Challans",
      "adresse": "21 place Galilée",
      "adresse_2": "BP 155",
      "code_postal": "85300",
      "ville": "Challans",
      "lat": "46.836254",
      "lng": "-1.879135"
    },
    {
      "region": "DAUPHINE SAVOIE",
      "title": "Agence de Chambéry",
      "adresse": "43 place Caffe",
      "code_postal": "73000",
      "ville": "Chambéry",
      "lat": "45.563514",
      "lng": "5.919422"
    },
    {
      "region": "DAUPHINE SAVOIE",
      "title": "Agence de Chamonix",
      "adresse": "182 route du Bouchet",
      "adresse_2": "Le Corzolet",
      "code_postal": "74400",
      "ville": "Chamonix",
      "lat": "45.925985",
      "lng": "6.874593"
    },
    {
      "region": "CENTRE OUEST",
      "title": "Agence de Chartres",
      "adresse": "1 Rue Louis Pasteur",
      "code_postal": "28630",
      "ville": "Le Coudray",
      "lat": "48.426397",
      "lng": "1.518745"
    },
    {
      "region": "CENTRE OUEST",
      "title": "Agence de Chateaudun",
      "adresse": "6, boulevard des Frères Bouliveau",
      "code_postal": "28200",
      "ville": "Chateaudun",
      "lat": "48.08443152",
      "lng": "1.344448162"
    },
    {
      "region": "BRETAGNE",
      "title": "Agence de Châteaulin",
      "adresse": "37, ZA de Penn Ar Roz",
      "code_postal": "29150",
      "ville": "Châteaulin",
      "lat": "48.20996386222305",
      "lng": " -4.062165859482919"
    },
    {
      "region": "CENTRE OUEST",
      "title": "Agence de Chatellerault",
      "adresse": "49, avenue Louis Ripault",
      "adresse_2": "CS 30514",
      "code_postal": "86105",
      "ville": "Chatellerault Cedex",
      "lat": "46.82749428",
      "lng": "0.545407363"
    },
    {
      "region": "CENTRE EST",
      "title": "Agence de Chaumont",
      "adresse": "79 rue du Val Barizien",
      "adresse_2": "CS 79",
      "code_postal": "52003",
      "ville": "Chaumont Cedex",
      "lat": "48.102324",
      "lng": "5.126387"
    },
    {
      "region": "BRETAGNE",
      "title": "Agence de Chavagne",
      "adresse": "4 Avenue des Fontenelles",
      "code_postal": "35310",
      "ville": "Chavagne",
      "lat": "48.0561",
      "lng": "-1.78199"
    },
    {
      "region": "NORMANDIE",
      "title": "Agence de Cherbourg",
      "adresse": "38 rue Lucet - La Glacerie",
      "code_postal": "50470",
      "ville": "Cherbourg en Cotentin",
      "lat": "49.64016342",
      "lng": "-1.621110172"
    },
    {
      "region": "CENTRE OUEST",
      "title": "Agence de Cholet - Bremond",
      "adresse": "8, rue Eugène Brémond",
      "adresse_2": "BP 40007",
      "code_postal": "49308",
      "ville": "Cholet Cedex",
      "lat": "47.06877938",
      "lng": "-0.904708009"
    },
    {
      "region": "CENTRE OUEST",
      "title": "Agence de Cholet - Terre Neuve",
      "adresse": "17 rue Eugène Brémond",
      "adresse_2": "BP 90911",
      "code_postal": "49309",
      "ville": "Cholet Cedex",
      "lat": "47.071348",
      "lng": "-0.90313"
    },
    {
      "region": "AUVERGNE RHONE-ALPES",
      "title": "Agence de Clermont-Ferrand",
      "adresse": "15 Boulevard Paul Pochet Lagaye",
      "code_postal": "63000",
      "ville": "Clermont-Ferrand",
      "lat": "45.764794",
      "lng": "3.102139"
    },
    {
      "region": "DAUPHINE SAVOIE",
      "title": "Agence de Cluses",
      "adresse": "390 rue des Peupliers",
      "adresse_2": "Zone Ecotec BP 175",
      "code_postal": "74303",
      "ville": "Cluses CEDEX",
      "lat": "46.065891",
      "lng": "6.518261"
    },
    {
      "region": "SUD OUEST",
      "title": "Agence de Cognac",
      "adresse": "113 avenue Victor Hugo ",
      "code_postal": "16100",
      "ville": "Cognac",
      "lat": "45.6901747",
      "lng": "-0.3198446"
    },
    {
      "region": "ALSACE - MOSELLE",
      "title": "Agence de Colmar",
      "adresse": "17 allée Ettore Bugatti",
      "code_postal": "68000",
      "ville": "Colmar",
      "lat": "48.0784407",
      "lng": "7.3453172"
    },
    {
      "region": "ILE DE France",
      "title": "Agence de Compiègne",
      "adresse": "116 rue Jean Monnet",
      "adresse_2": "Parc Tertiaire de la Croix",
      "adresse_3": "Immeuble l'Européen - CS 121",
      "code_postal": "60200",
      "ville": "Compiègne",
      "lat": "49.382132",
      "lng": "2.782622"
    },
    {
      "region": "NORMANDIE",
      "title": "Agence de Condé-en-Normandie",
      "adresse": "36 bis rue de Vire",
      "code_postal": "14110",
      "ville": "Condé-en-Normandie",
      "lat": "48.849646",
      "lng": "-0.553346"
    },
    {
      "region": "ILE DE France",
      "title": "Agence de Courbevoie",
      "adresse": "4 rue de l'Abreuvoir",
      "code_postal": "92415",
      "ville": "Courbevoie Cedex",
      "lat": "48.890721",
      "lng": "2.255537"
    },
    {
      "region": "NORMANDIE",
      "title": "Agence de Coutances",
      "adresse": "9, rue de l'Ecluse Chette",
      "adresse_2": "BP 213",
      "code_postal": "50202",
      "ville": "Coutances Cedex",
      "lat": "49.05220393",
      "lng": "-1.443557111"
    },
    {
      "region": "BRETAGNE",
      "title": "Agence de Crozon",
      "adresse": "Zone Artisanale du Bourg",
      "code_postal": "29160",
      "ville": "Crozon",
      "lat": "48.2480067",
      "lng": "-4.4872277"
    },
    {
      "region": "NORMANDIE",
      "title": "Agence de Damville",
      "adresse": "7-9 rue Aimé Charpentier",
      "adresse_2": "Damville",
      "code_postal": "27240",
      "ville": "Mesnils sur Iton",
      "lat": "48.870273",
      "lng": "1.072263"
    },
    {
      "region": "NORMANDIE",
      "title": "Agence de Dieppe",
      "adresse": "4, Rue Aguado",
      "code_postal": "76200",
      "ville": "Dieppe",
      "lat": "49.926071",
      "lng": "1.073481"
    },
    {
      "region": "CENTRE EST",
      "title": "Agence de Dijon",
      "adresse": "3G rue Jeanne Barret",
      "adresse_2": "Parc Valmy",
      "code_postal": "21000",
      "ville": "Dijon",
      "lat": "47.365875",
      "lng": "5.049971"
    },
    {
      "region": "BRETAGNE",
      "title": "Agence de Dinan",
      "adresse": "Centre d'Affaires La Garaye",
      "adresse_2": "3, boulevard du Petit Paris",
      "adresse_3": "TADEN - CS 83123",
      "code_postal": "22103",
      "ville": "Dinan Cedex",
      "lat": "48.4663712",
      "lng": "-2.0610951"
    },
    {
      "region": "NORMANDIE",
      "title": "Agence de Donville-les-Bains",
      "adresse": "26, route de Coutances",
      "adresse_2": "BP 339",
      "code_postal": "50350",
      "ville": "Donville-les-Bains",
      "lat": "48.85396568",
      "lng": "-1.565133967"
    },
    {
      "region": "NORD DE France",
      "title": "Agence de Douai",
      "adresse": "100 rue Pierre Dubois",
      "code_postal": "59500",
      "ville": "Douai",
      "lat": "50.3742",
      "lng": "3.08609"
    },
    {
      "region": "COTE D'AZUR",
      "title": "Agence de Draguignan",
      "adresse": "Résidence Louis XV -104 rue François Mimault",
      "adresse_2": "BP 163",
      "code_postal": "83300",
      "ville": "Draguignan",
      "lat": "43.53259",
      "lng": "6.46582"
    },
    {
      "region": "NORD DE France",
      "title": "Agence de Dunkerque",
      "adresse": "36, bis avenue des Bains",
      "adresse_2": "BP 73171",
      "code_postal": "59140",
      "ville": "Dunkerque Cedex 1",
      "lat": "51.0436",
      "lng": "2.38364"
    },
    {
      "region": "ILE DE France",
      "title": "Agence de Evry",
      "adresse": "20, rue du Bois Chaland",
      "adresse_2": "CE 5606 - Lisses",
      "code_postal": "91056",
      "ville": "Evry Cedex",
      "lat": "48.603425",
      "lng": "2.434167"
    },
    {
      "region": "DAUPHINE SAVOIE",
      "title": "Agence de Faverges",
      "adresse": "Zac des Boucheroz",
      "adresse_2": "4869 chemin de Pérouses",
      "code_postal": "74210",
      "ville": "Faverges",
      "lat": "45.7543",
      "lng": "6.27819"
    },
    {
      "region": "NORMANDIE",
      "title": "Agence de Flers",
      "adresse": "13, rue du Moulin",
      "code_postal": "61100",
      "ville": "Flers",
      "lat": "48.751165",
      "lng": "-0.565923"
    },
    {
      "region": "COTE D'AZUR",
      "title": "Agence de Fréjus",
      "adresse": "134 avenue de l?Argens  ",
      "code_postal": "83600",
      "ville": "Frejus",
      "lat": "43.4264682",
      "lng": "6.7339535"
    },
    {
      "region": "SUD OUEST",
      "title": "Agence de Gironde-sur-Dropt",
      "adresse": "88 C avenue du Général De Gaulle",
      "code_postal": "33190",
      "ville": "Gironde-sur-Dropt",
      "lat": "44.5849",
      "lng": "-0.086324999999988"
    },
    {
      "region": "NORMANDIE",
      "title": "Agence de Granville",
      "adresse": "30, allée du Moulin Féret",
      "adresse_2": "BP 727",
      "adresse_3": "YQUELON",
      "code_postal": "50407",
      "ville": "Granville Cedex",
      "lat": "48.837562",
      "lng": "-1.555804"
    },
    {
      "region": "DAUPHINE SAVOIE",
      "title": "Agence de Grenoble",
      "adresse": "1 bis, boulevard de la Chantourne",
      "code_postal": "38700",
      "ville": "La Tronche",
      "lat": "45.1968",
      "lng": "5.74883"
    },
    {
      "region": "ALSACE - MOSELLE",
      "title": "Agence de Gundershoffen",
      "adresse": "12, rue des Genêts",
      "code_postal": "67110",
      "ville": "Gundershoffen",
      "lat": "48.90331863",
      "lng": "7.653270718"
    },
    {
      "region": "ALSACE - MOSELLE",
      "title": "Agence de Haguenau",
      "adresse": "7 et 38 boulevard de l'Europe",
      "code_postal": "67500",
      "ville": "Haguenau",
      "lat": "48.81463782",
      "lng": "7.783658818"
    },
    {
      "region": "OUEST ATLANTIQUE",
      "title": "Agence de Haute Goulaine",
      "adresse": "Parc d'activités de la Lande Saint-Martin",
      "adresse_2": "78, rue Georges Charpak",
      "adresse_3": "CS 52215",
      "code_postal": "44122",
      "ville": "Vertou Cedex",
      "lat": "47.183065",
      "lng": "-1.417327"
    },
    {
      "region": "NORD DE France",
      "title": "Agence de Hazebrouck",
      "adresse": "26 Rue Nationale",
      "code_postal": "59190",
      "ville": "Hazebrouck",
      "lat": "50.7239",
      "lng": "2.53989"
    },
    {
      "region": "CENTRE EST",
      "title": "Agence de Héricourt",
      "adresse": "35 avenue Léon Jouhaux",
      "code_postal": "70400",
      "ville": "Héricourt",
      "lat": "47.578201",
      "lng": "6.763298"
    },
    {
      "region": "NORMANDIE",
      "title": "Agence de L'Aigle",
      "adresse": "21 Place de Verdun",
      "code_postal": "61300",
      "ville": "L'Aigle",
      "lat": "48.76359",
      "lng": "0.62044"
    },
    {
      "region": "OUEST ATLANTIQUE",
      "title": "Agence de la Baule",
      "adresse": "9 route de la Croix Moriau",
      "adresse_2": "CS 25178",
      "code_postal": "44351",
      "ville": "Guérande Cedex",
      "lat": "47.30595",
      "lng": "-2.390428"
    },
    {
      "region": "DAUPHINE SAVOIE",
      "title": "Agence de La Clusaz",
      "adresse": "Immeuble \"Le Partner\"",
      "adresse_2": "1120 route de l'Etale",
      "code_postal": "74220",
      "ville": "La Clusaz",
      "lat": "45.8966",
      "lng": "6.42575"
    },
    {
      "region": "DAUPHINE SAVOIE",
      "title": "Agence de La Côte-Saint-André",
      "adresse": "1, rue Jean-Pierre du Teil",
      "adresse_2": "BP 50",
      "code_postal": "38261",
      "ville": "La Côte-Saint-André",
      "lat": "45.382224",
      "lng": "5.26093"
    },
    {
      "region": "OUEST ATLANTIQUE",
      "title": "Agence de La Roche sur Yon",
      "adresse": "340, rue du Clair Bocage",
      "adresse_2": "Parc d'activité de Beaupuy 2",
      "adresse_3": "Mouilleron le Captif - BP 622",
      "code_postal": "85016",
      "ville": "La Roche sur Yon Cedex",
      "lat": "46.72418007",
      "lng": "-1.431271721"
    },
    {
      "region": "DAUPHINE SAVOIE",
      "title": "Agence de La Roche-sur-Foron",
      "adresse": "48, rue Pasteur",
      "code_postal": "74800",
      "ville": "La Roche-sur-Foron",
      "lat": "46.06251454",
      "lng": "6.319010719"
    },
    {
      "region": "CENTRE OUEST",
      "title": "Agence de La Rochelle - Périgny",
      "adresse": "33 avenue Bernard Moitessier ",
      "code_postal": "17180",
      "ville": "Perigny",
      "lat": "46.1614155",
      "lng": "-1.1170918"
    },
    {
      "region": "CENTRE OUEST",
      "title": "Agence de La Tremblade",
      "adresse": "32 Avenue du Général De Gaulle",
      "adresse_2": "BP 58",
      "code_postal": "17390",
      "ville": "La Tremblade",
      "lat": "45.778663",
      "lng": "-1.149091"
    },
    {
      "region": "BRETAGNE",
      "title": "Agence de Landerneau",
      "adresse": "120, rue Michelet",
      "code_postal": "29800",
      "ville": "Landerneau",
      "lat": "48.4496655",
      "lng": "-4.2585019"
    },
    {
      "region": "BRETAGNE",
      "title": "Agence de Langueux",
      "adresse": "3 rue de la Ville Néant",
      "adresse_2": "CS 40009",
      "code_postal": "22360",
      "ville": "Langueux",
      "lat": "48.4951205",
      "lng": "-2.7255514"
    },
    {
      "region": "BRETAGNE",
      "title": "Agence de Lannilis",
      "adresse": "4, place de l'Auditoire",
      "code_postal": "29870",
      "ville": "Lannilis",
      "lat": "48.5690617",
      "lng": "-4.5231712"
    },
    {
      "region": "CENTRE OUEST",
      "title": "Agence de Laval",
      "adresse": "13 avenue du Marechal de Lattre de Tassigny",
      "code_postal": "53000",
      "ville": "Laval",
      "lat": "48.0777",
      "lng": "-0.797078"
    },
    {
      "region": "COTE D'AZUR",
      "title": "Agence de Le Cannet Des Maures",
      "adresse": "Immeuble Regain",
      "adresse_2": "Rue Alphonse Daudet",
      "code_postal": "83340",
      "ville": "Le Cannet des Maures",
      "lat": "43.39138",
      "lng": "6.3432003"
    },
    {
      "region": "CENTRE OUEST",
      "title": "Agence de Le Mans",
      "adresse": "79, route du Chêne",
      "adresse_2": "BP 20058",
      "code_postal": "72232",
      "ville": "Arnage Cedex",
      "lat": "47.95026946",
      "lng": "0.19525274"
    },
    {
      "region": "NORMANDIE",
      "title": "Agence de Le Neubourg",
      "adresse": "8, Rue de la République",
      "code_postal": "27110",
      "ville": "Le Neubourg",
      "lat": "49.149994",
      "lng": "0.904309"
    },
    {
      "region": "NORD DE France",
      "title": "Agence de Lens",
      "adresse": "Zone d'Activité de l'Artisanat",
      "adresse_2": "12 rue de l'Artisanat",
      "code_postal": "62300",
      "ville": "Lens",
      "lat": "50.4408",
      "lng": "2.8057699999999"
    },
    {
      "region": "NORD DE France",
      "title": "Agence de Lille",
      "adresse": "67, rue de Luxembourg",
      "adresse_2": "BP 10201",
      "code_postal": "59002",
      "ville": "Lille Cedex",
      "lat": "50.6396",
      "lng": "3.078"
    },
    {
      "region": "NORD DE France",
      "title": "Agence de Lille Canonniers",
      "adresse": "46 rue des Canonniers",
      "adresse_2": "BP 10237",
      "code_postal": "59002",
      "ville": "Lille Cedex",
      "lat": "50.6408",
      "lng": "3.06884"
    },
    {
      "region": "NORMANDIE",
      "title": "Agence de Lisieux",
      "adresse": "45 Rue Henry Chéron",
      "code_postal": "14100",
      "ville": "Lisieux",
      "lat": "49.145727",
      "lng": "0.226276"
    },
    {
      "region": "CENTRE OUEST",
      "title": "Agence de Loches",
      "adresse": "48 avenue Pierruche",
      "code_postal": "37600",
      "ville": "Perrusson ",
      "lat": "47.1056884",
      "lng": "1.009279"
    },
    {
      "region": "SUD OUEST",
      "title": "Agence de Lourdes",
      "adresse": "11 avenue Saint-Joseph",
      "code_postal": "65100",
      "ville": "Lourdes",
      "lat": "43.0997",
      "lng": "-0.039596999999958"
    },
    {
      "region": "CENTRE EST",
      "title": "Agence de Lure",
      "adresse": "5 rue du Stade",
      "code_postal": "70200",
      "ville": "Lure",
      "lat": "47.68569",
      "lng": "6.5021"
    },
    {
      "region": "AUVERGNE RHONE-ALPES",
      "title": "Agence de Lyon - Charbonnières",
      "adresse": "24, chemin des Verrières",
      "adresse_2": "BP 33",
      "code_postal": "69751",
      "ville": "Charbonnières Cedex",
      "lat": "45.78748007",
      "lng": "4.741848096"
    },
    {
      "region": "AUVERGNE RHONE-ALPES",
      "title": "Agence de Lyon - Tignieu - Saint Exupery",
      "adresse": "10 Boulevard de Verna",
      "code_postal": "38230",
      "ville": "Tignieu-Jameyzieu",
      "lat": "45.747023",
      "lng": "5.177935"
    },
    {
      "region": "AUVERGNE RHONE-ALPES",
      "title": "Agence de Lyon - Villeurbanne",
      "adresse": "Campus In Extenso La Doua",
      "adresse_2": "53 avenue Albert Einstein",
      "adresse_3": "CS 81284",
      "code_postal": "69608",
      "ville": "Villeurbanne Cedex",
      "lat": "45.785054",
      "lng": "4.88889"
    },
    {
      "region": "SUD OUEST",
      "title": "Agence de Marmande",
      "adresse": "ZAC Croix de Lugat",
      "code_postal": "47200",
      "ville": "Saint Pardoux du Breuil",
      "lat": "44.498168",
      "lng": "0.182455"
    },
    {
      "region": "MEDITERRANEE",
      "title": "Agence de Marseille",
      "adresse": "Ilot 34 - Bâtiment G",
      "adresse_2": "42 rue de Ruffi",
      "code_postal": "13002",
      "ville": "Marseille",
      "lat": "43.3149",
      "lng": "5.36892"
    },
    {
      "region": "DAUPHINE SAVOIE",
      "title": "Agence de Meylan",
      "adresse": "13 chemin du Vieux Chêne",
      "code_postal": "38240",
      "ville": "Meylan",
      "lat": "45.207",
      "lng": "5.78651"
    },
    {
      "region": "SUD OUEST",
      "title": "Agence de Mimizan",
      "adresse": "1 rue du Stade",
      "code_postal": "40200",
      "ville": "Mimizan",
      "lat": "44.2017",
      "lng": "-1.22772"
    },
    {
      "region": "DAUPHINE SAVOIE",
      "title": "Agence de Moirans",
      "adresse": "137 rue de Mayoussard",
      "adresse_2": "Centr'Alp Parc du Pommarin - Batiment C",
      "code_postal": "38430",
      "ville": "Moirans",
      "lat": "45.3213",
      "lng": "5.5911"
    },
    {
      "region": "SUD OUEST",
      "title": "Agence de Mont-de-Marsan",
      "adresse": "980 avenue Eloi Ducom",
      "code_postal": "40000",
      "ville": "Mont-de-Marsan",
      "lat": "43.8911",
      "lng": "-0.48498399999994"
    },
    {
      "region": "SUD OUEST",
      "title": "Agence de Montauban",
      "adresse": "495 avenue de Paris",
      "code_postal": "82000",
      "ville": "Montauban",
      "lat": "44.0341",
      "lng": "1.3754"
    },
    {
      "region": "AUVERGNE RHONE-ALPES",
      "title": "Agence de Montbrison",
      "adresse": "Au Four à Chaux",
      "code_postal": "42600",
      "ville": "Savigneux",
      "lat": "45.608037",
      "lng": "4.095017"
    },
    {
      "region": "DAUPHINE SAVOIE",
      "title": "Agence de Montélimar",
      "adresse": "Parc d'Activités Fortuneau",
      "adresse_2": "Chemin du Pouloumard",
      "adresse_3": "BP 235",
      "code_postal": "26206",
      "ville": "Montélimar Cedex",
      "lat": "44.53885",
      "lng": "4.7364"
    },
    {
      "region": "SUD OUEST",
      "title": "Agence de Montpon",
      "adresse": "12 bis place Gambetta",
      "code_postal": "24700",
      "ville": "Montpon Ménestérol",
      "lat": "45.0094",
      "lng": "0.16249300000004"
    },
    {
      "region": "BRETAGNE",
      "title": "Agence de Morlaix",
      "adresse": "Parc d'activité du Grand Launay",
      "adresse_2": "Rue Ar Brug",
      "code_postal": "29600",
      "ville": "Saint Martin des Champs",
      "lat": "48.57755",
      "lng": "-3.8574877"
    },
    {
      "region": "NORMANDIE",
      "title": "Agence de Mortagne - Point C",
      "adresse": "6 Place du Général de Gaulle",
      "code_postal": "61400",
      "ville": "Mortagne-au-Perche",
      "lat": "48.520646",
      "lng": "0.545507"
    },
    {
      "region": "CENTRE EST",
      "title": "Agence de Morteau",
      "adresse": "13 rue du Bief",
      "code_postal": "25500",
      "ville": "Morteau",
      "lat": "47.0587917",
      "lng": "6.6156338"
    },
    {
      "region": "ALSACE - MOSELLE",
      "title": "Agence de Mulhouse",
      "adresse": "Parc des Collines",
      "adresse_2": "57, rue Victor Schoelcher",
      "adresse_3": "BP 62273",
      "code_postal": "68068",
      "ville": "Mulhouse Cedex",
      "lat": "47.73228643",
      "lng": "7.29032287"
    },
    {
      "region": "CENTRE EST",
      "title": "Agence de Nancy",
      "adresse": "84 Quai Claude le Lorrain",
      "code_postal": "54000",
      "ville": "Nancy",
      "lat": "48.698",
      "lng": "6.17019"
    },
    {
      "region": "OUEST ATLANTIQUE",
      "title": "Agence de Nantes Centre",
      "adresse": "Bâtiment Eureka - 1er étage",
      "adresse_2": "1 mail du Front Populaire",
      "adresse_3": "29 rue La Noue Bras de Fer",
      "code_postal": "44200",
      "ville": "Nantes",
      "lat": "47.207096099853516",
      "lng": "-1.5599814653396606"
    },
    {
      "region": "OUEST ATLANTIQUE",
      "title": "Agence de Nantes Erdre",
      "adresse": "6, rue Edouard Nignon",
      "adresse_2": "CS 37201",
      "code_postal": "44372",
      "ville": "Nantes cedex 3",
      "lat": "47.27586",
      "lng": "-1.5106"
    },
    {
      "region": "OUEST ATLANTIQUE",
      "title": "Agence de Nantes Saint Herblain",
      "adresse": "1 rue Benjamin Franklin",
      "adresse_2": "CS 10047",
      "code_postal": "44801",
      "ville": "Saint Herblain Cedex",
      "lat": "47.229267",
      "lng": "-1.62009"
    },
    {
      "region": "NORMANDIE",
      "title": "Agence de Neufchatel-en-Bray",
      "adresse": "1 Grande rue Saint-Jacques",
      "code_postal": "76270",
      "ville": "Neufchatel-en-Bray",
      "lat": "49.733689",
      "lng": "1.441716"
    },
    {
      "region": "COTE D'AZUR",
      "title": "Agence de Nice Verdun",
      "adresse": "4 bis, avenue de Verdun",
      "code_postal": "6000",
      "ville": "Nice",
      "lat": "43.6971391",
      "lng": "7.269598624"
    },
    {
      "region": "MEDITERRANEE",
      "title": "Agence de Nîmes",
      "adresse": "165 rue Philippe Maupas",
      "adresse_2": "Parc Georges Besse 2",
      "code_postal": "30900",
      "ville": "Nîmes",
      "lat": "43.8231",
      "lng": "4.36959"
    },
    {
      "region": "CENTRE OUEST",
      "title": "Agence de Niort",
      "adresse": "141, rue de Cholette",
      "code_postal": "79000",
      "ville": "Niort",
      "lat": "46.340274",
      "lng": "-0.448528"
    },
    {
      "region": "CENTRE OUEST",
      "title": "Agence de Nogent-le-Rotrou",
      "adresse": "6, rue du Val Roquet",
      "code_postal": "28400",
      "ville": "Nogent le Rotrou ",
      "lat": "48.31802711",
      "lng": "0.832787135"
    },
    {
      "region": "ILE DE France",
      "title": "Agence de Nogent-sur-Marne",
      "adresse": "7 avenue de Joinville",
      "code_postal": "94130",
      "ville": "Nogent-sur-Marne",
      "lat": "48.8340544",
      "lng": "2.4723998"
    },
    {
      "region": "NORMANDIE",
      "title": "Agence de Orbec",
      "adresse": "3 à 5 Rue de la Basse Franconie",
      "code_postal": "14290",
      "ville": "Orbec",
      "lat": "49.023473",
      "lng": "0.402974"
    },
    {
      "region": "CENTRE OUEST",
      "title": "Agence de Orléans Nord",
      "adresse": "5-7 avenue des Droits de l'Homme",
      "adresse_2": "BP 75701",
      "code_postal": "45057",
      "ville": "Orléans Cedex 1",
      "lat": "47.915688",
      "lng": "1.923625"
    },
    {
      "region": "CENTRE OUEST",
      "title": "Agence de Orléans Sud",
      "adresse": "38, rue de la Marine de Loire",
      "adresse_2": "BP 8106",
      "code_postal": "45081",
      "ville": "Orléans Cedex 1",
      "lat": "47.890039",
      "lng": "1.898756"
    },
    {
      "region": "ILE DE France",
      "title": "Agence de Paris - Boulogne-Billancourt",
      "adresse": "63 ter avenue Edouard Vaillant",
      "adresse_2": "CS 80137",
      "code_postal": "92517",
      "ville": "Boulogne Billancourt cedex",
      "lat": "48.835113",
      "lng": "2.248958"
    },
    {
      "region": "SUD OUEST",
      "title": "Agence de Périgueux",
      "adresse": "Les Romains - Champcevinel",
      "adresse_2": "BP 70070",
      "code_postal": "24003",
      "ville": "Périgueux Cedex",
      "lat": "45.197614",
      "lng": "0.738803"
    },
    {
      "region": "MEDITERRANEE",
      "title": "Agence de Perpignan",
      "adresse": "Parc Ducup",
      "adresse_2": "3055 Avenue de Prades",
      "code_postal": "66000",
      "ville": "Perpignan",
      "lat": "42.6894",
      "lng": "2.832"
    },
    {
      "region": "CENTRE OUEST",
      "title": "Agence de Poitiers Providence",
      "adresse": "8 rue de la Providence",
      "code_postal": "86000",
      "ville": "Poitiers",
      "lat": "46.563417",
      "lng": "0.367811"
    },
    {
      "region": "CENTRE OUEST",
      "title": "Agence de Pons",
      "adresse": "ZAC de Bonnerme",
      "code_postal": "17800",
      "ville": "Pons",
      "lat": "45.580219",
      "lng": "-0.545993"
    },
    {
      "region": "CENTRE EST",
      "title": "Agence de Pontarlier",
      "adresse": "ZAE des Gravilliers",
      "adresse_2": "14 rue Paul Edouard Dubied - BP 123",
      "code_postal": "25302",
      "ville": "Pontarlier Cedex",
      "lat": "46.907711",
      "lng": "6.336493"
    },
    {
      "region": "OUEST ATLANTIQUE",
      "title": "Agence de Pornic",
      "adresse": "Forum de l'Europe",
      "adresse_2": "2 rue du Traité d'Amsterdam",
      "adresse_3": "BP 1321",
      "code_postal": "44213",
      "ville": "Pornic Cedex",
      "lat": "47.124771",
      "lng": "-2.129036"
    },
    {
      "region": "OUEST ATLANTIQUE",
      "title": "Agence de Pornichet",
      "adresse": "1 avenue du Gulf Stream",
      "code_postal": "44380",
      "ville": "Pornichet",
      "lat": "47.2585658",
      "lng": "-2.3020091"
    },
    {
      "region": "DAUPHINE SAVOIE",
      "title": "Agence de Portes-lès-Valence",
      "adresse": "236 rue Albert Einstein",
      "code_postal": "26800",
      "ville": "Portes-lès-Valence",
      "lat": "44.8847",
      "lng": "4.87933"
    },
    {
      "region": "DAUPHINE SAVOIE",
      "title": "Agence de Privas",
      "adresse": "ZI Le lac",
      "adresse_2": "114 avenue Louis Néel",
      "code_postal": "7000",
      "ville": "Privas",
      "lat": "44.72",
      "lng": "4.60832"
    },
    {
      "region": "BRETAGNE",
      "title": "Agence de Quimper",
      "adresse": "2 rue du Frugy",
      "code_postal": "29000",
      "ville": "Quimper",
      "lat": "47.9876382",
      "lng": "-4.1105234"
    },
    {
      "region": "BRETAGNE",
      "title": "Agence de Rennes Centre",
      "adresse": "16B rue Saint-Mélaine",
      "adresse_2": "La Visitation",
      "code_postal": "35000",
      "ville": "Rennes",
      "lat": "48.114980",
      "lng": "-1.677810"
    },
    {
      "region": "BRETAGNE",
      "title": "Agence de Rennes Nord",
      "adresse": "7, avenue Charles et Raymonde Tillon",
      "adresse_2": "CS 81114",
      "code_postal": "35011",
      "ville": "Rennes",
      "lat": "48.1265955",
      "lng": "-1.6902289"
    },
    {
      "region": "SUD OUEST",
      "title": "Agence de Ribérac",
      "adresse": "3 avenue de Royan",
      "code_postal": "24600",
      "ville": "Ribérac",
      "lat": "45.2556",
      "lng": "0.33911899999998"
    },
    {
      "region": "CENTRE OUEST",
      "title": "Agence de Rivedoux",
      "adresse": "34 rue Pasteur",
      "code_postal": "17940",
      "ville": "Rivedoux",
      "lat": "46.15911",
      "lng": "-1.273547"
    },
    {
      "region": "CENTRE OUEST",
      "title": "Agence de Rochefort",
      "adresse": "19A Rue Villeneuve Montigny",
      "code_postal": "17300",
      "ville": "Rochefort",
      "lat": "45.9333",
      "lng": "-0.9833"
    },
    {
      "region": "DAUPHINE SAVOIE",
      "title": "Agence de Romans-sur-Isère",
      "adresse": "3 rue Jean Joseph Mounier ",
      "adresse_2": "BP 214",
      "code_postal": "26105",
      "ville": "Romans-sur-Isère cedex",
      "lat": "45.0494",
      "lng": "5.07288"
    },
    {
      "region": "NORMANDIE",
      "title": "Agence de Rouen",
      "adresse": "23 avenue de Caen",
      "code_postal": "76100",
      "ville": "Rouen",
      "lat": "49.429994",
      "lng": "1.077059"
    },
    {
      "region": "DAUPHINE SAVOIE",
      "title": "Agence de Roussillon",
      "adresse": "3 Rue Baptiste Marcet",
      "code_postal": "38150",
      "ville": "Roussillon",
      "lat": "45.3616",
      "lng": "4.79914"
    },
    {
      "region": "CENTRE OUEST",
      "title": "Agence de Royan",
      "adresse": "37 rue de la Manche",
      "code_postal": "17200",
      "ville": "Royan",
      "lat": "45.6341894",
      "lng": "-1.0221077"
    },
    {
      "region": "DAUPHINE SAVOIE",
      "title": "Agence de Rumilly",
      "adresse": "13, rue Jean Moulin",
      "code_postal": "74150",
      "ville": "Rumilly",
      "lat": "45.84723",
      "lng": "5.95878"
    },
    {
      "region": "AUVERGNE RHONE-ALPES",
      "title": "Agence de Saint-Etienne",
      "adresse": "Immeuble Le Qu4tre",
      "adresse_2": "24 rue des Aciéries",
      "adresse_3": "BP 20172",
      "code_postal": "42004",
      "ville": "Saint Etienne Cedex 01",
      "lat": "45.439695",
      "lng": "4.3871779"
    },
    {
      "region": "DAUPHINE SAVOIE",
      "title": "Agence de Saint-Etienne-De-Saint-Geoirs",
      "adresse": "1, rue de la Croix Beillier",
      "adresse_2": "ZAC Grenoble Air Parc",
      "adresse_3": "Batiment Saint Exupéry",
      "code_postal": "38590",
      "ville": "Saint Etienne de Saint Geoirs",
      "lat": "45.321492",
      "lng": "5.353284"
    },
    {
      "region": "NORMANDIE",
      "title": "Agence de Saint-Hilaire-du-Harcouet",
      "adresse": "88, rue de Mortain",
      "code_postal": "50600",
      "ville": "Saint-Hilaire-du-Harcouet",
      "lat": "48.57924562",
      "lng": "-1.092627429"
    },
    {
      "region": "NORMANDIE",
      "title": "Agence de Saint-Lo",
      "adresse": "20 rue du Maréchal Leclerc",
      "code_postal": "50000",
      "ville": "Saint-Lo",
      "lat": "49.114887",
      "lng": "-1.089438"
    },
    {
      "region": "BRETAGNE",
      "title": "Agence de Saint-Méen-Le-Grand",
      "adresse": "Rue Louis Braille",
      "adresse_2": "ZA du Petit Maupas",
      "code_postal": "35290",
      "ville": "Saint-Méen-le-Grand",
      "lat": "48.1866779",
      "lng": "-2.1772099"
    },
    {
      "region": "NORD DE France",
      "title": "Agence de Saint-Pol-Sur-Ternoise",
      "adresse": "28 bis rue de Fruges",
      "adresse_2": "CS 80005",
      "code_postal": "62166",
      "ville": "Saint-Pol-Sur-Ternoise Cedex",
      "lat": "50.3827725",
      "lng": "2.3312268"
    },
    {
      "region": "SUD OUEST",
      "title": "Agence de Saint-Vincent-de-Paul",
      "adresse": "Zone Artisanale La Carrère",
      "adresse_2": "99, rue de la Cantère",
      "code_postal": "40990",
      "ville": "Saint-Vincent-de-Paul",
      "lat": "43.7412",
      "lng": "-1.01823"
    },
    {
      "region": "SUD OUEST",
      "title": "Agence de Saint-Vincent-de-Tyrosse",
      "adresse": "22 rue de Casablanca",
      "code_postal": "40230",
      "ville": "Saint-Vincent-de-Tyrosse",
      "lat": "43.6669",
      "lng": "-1.28261"
    },
    {
      "region": "CENTRE EST",
      "title": "Agence de Saints-Geosmes",
      "adresse": "4 rue du Lieutenant Didier",
      "adresse_2": "CS 40016",
      "code_postal": "52206",
      "ville": "Langres Cedex",
      "lat": "47.828672",
      "lng": "5.329516"
    },
    {
      "region": "SUD OUEST",
      "title": "Agence de Salies-de-Béarn",
      "adresse": "3 cours du Jardin Public",
      "code_postal": "64270",
      "ville": "Salies-de-Béarn",
      "lat": "43.4726",
      "lng": "-0.92572700000005"
    },
    {
      "region": "DAUPHINE SAVOIE",
      "title": "Agence de Sallanches",
      "adresse": "142, Quai de l'Hôtel de Ville",
      "adresse_2": "BP 131 ",
      "code_postal": "74704",
      "ville": "Sallanches Cedex",
      "lat": "45.93636",
      "lng": "6.62928"
    },
    {
      "region": "ALSACE - MOSELLE",
      "title": "Agence de Sarrebourg",
      "adresse": "ZAC Les Terrasses",
      "adresse_2": "7 Terrasse Champagne",
      "code_postal": "57400",
      "ville": "Sarrebourg",
      "lat": "48.721239",
      "lng": "7.04466"
    },
    {
      "region": "CENTRE OUEST",
      "title": "Agence de Saumur",
      "adresse": "Espace Millenium ",
      "adresse_2": "Rue de l'Europe",
      "code_postal": "49400",
      "ville": "Distré",
      "lat": "47.2325182",
      "lng": "-0.1145322"
    },
    {
      "region": "ALSACE - MOSELLE",
      "title": "Agence de Saverne",
      "adresse": "Rue Rohan",
      "code_postal": "67790",
      "ville": "Steinbourg",
      "lat": "48.758408",
      "lng": "7.398932"
    },
    {
      "region": "CENTRE OUEST",
      "title": "Agence de Segré",
      "adresse": "ZI d'Etriché",
      "adresse_2": "Rue Gustave Eiffel",
      "code_postal": "49500",
      "ville": "Segré",
      "lat": "47.69042536",
      "lng": "-0.841865977"
    },
    {
      "region": "ALSACE - MOSELLE",
      "title": "Agence de Sélestat",
      "adresse": "1 boulevard Joffre",
      "code_postal": "67600",
      "ville": "Sélestat",
      "lat": "48.25807",
      "lng": "7.450413"
    },
    {
      "region": "ALSACE - MOSELLE",
      "title": "Agence de Strasbourg Centre",
      "adresse": "Espace Européen de l'Entreprise",
      "adresse_2": "5, Allée d'Helsinki",
      "adresse_3": "BP 50043 Schiltigheim",
      "code_postal": "67012",
      "ville": "Strasbourg Cedex",
      "lat": "48.614974",
      "lng": "7.714589"
    },
    {
      "region": "ALSACE - MOSELLE",
      "title": "Agence de Strasbourg Nord",
      "adresse": "Espace Européen de l'Entreprise",
      "adresse_2": "4, rue de Copenhague",
      "code_postal": "67300",
      "ville": "Strasbourg Cedex",
      "lat": "48.610469",
      "lng": "7.718303"
    },
    {
      "region": "DAUPHINE SAVOIE",
      "title": "Agence de Thones",
      "adresse": "25 rue de la saulne",
      "adresse_2": "Les Dolymes",
      "code_postal": "74230",
      "ville": "Thônes",
      "lat": "45.8832",
      "lng": "6.32666"
    },
    {
      "title": "Agence de Toulon La Farlède",
      "adresse": "259, rue Lavoisier",
      "code_postal": "83210",
      "ville": "La Farlède",
      "lat": "43.1564",
      "lng": "6.04546"
    },
    {
      "title": "Agence de Toulon Ollioules",
      "adresse": "Route de la Seyne",
      "adresse_2": "Technopole Var Matin Bât J",
      "code_postal": "83190",
      "ville": "Ollioules",
      "lat": "43.12625",
      "lng": "5.847361"
    },
    {
      "region": "SUD OUEST",
      "title": "Agence de Toulouse",
      "adresse": "9 Rue Matabiau",
      "adresse_2": "Espace Jeanne d'Arc",
      "code_postal": "31000",
      "ville": "Toulouse",
      "lat": "43.6104",
      "lng": "1.44696"
    },
    {
      "region": "SUD OUEST",
      "title": "Agence de Toulouse Balma",
      "adresse": "24 avenue Georges Pompidou",
      "code_postal": "31130",
      "ville": "Balma Toulouse",
      "lat": "43.6289",
      "lng": "1.48959"
    },
    {
      "region": "CENTRE OUEST",
      "title": "Agence de Tours Nord",
      "adresse": "Centre d'Affaires l'Aéronef",
      "adresse_2": "25, rue de la Milletière",
      "adresse_3": "BP 87457",
      "code_postal": "37074",
      "ville": "Tours cedex 2",
      "lat": "47.43514",
      "lng": "0.70537"
    },
    {
      "region": "CENTRE OUEST",
      "title": "Agence de Tours Sud",
      "adresse": "149 Boulevard Jean Jaurès",
      "adresse_2": "BP 50126",
      "code_postal": "37301",
      "ville": "Joué Lès Tours Cedex",
      "lat": "47.348199",
      "lng": "0.657282"
    },
    {
      "region": "CENTRE EST",
      "title": "Agence de Troyes",
      "adresse": "15 rue des Troprès",
      "code_postal": "10150",
      "ville": "Sainte-Maure",
      "lat": "48.339483",
      "lng": "4.078746"
    },
    {
      "region": "DAUPHINE SAVOIE",
      "title": "Agence de Val-d'Isère",
      "adresse": "Chalet \"Les Pignes\"",
      "adresse_2": "Avenue du Prariond",
      "code_postal": "73150",
      "ville": "Val-d'Isère",
      "lat": "45.448760",
      "lng": "6.982420"
    },
    {
      "region": "DAUPHINE SAVOIE",
      "title": "Agence de Valence",
      "adresse": "ZI de Briffaut Est",
      "adresse_2": "37, avenue Jean Monnet",
      "code_postal": "26000",
      "ville": "Valence",
      "lat": "44.9195",
      "lng": "4.93446"
    },
    {
      "region": "NORMANDIE",
      "title": "Agence de Verneuil-Sur-Avre",
      "adresse": "392 rue de la Madeleine",
      "code_postal": "27130",
      "ville": "Verneuil-sur-Avre",
      "lat": "48.739053",
      "lng": "0.927444"
    },
    {
      "region": "CENTRE EST",
      "title": "Agence de Vesoul",
      "adresse": "12 rue Victor Dollé",
      "adresse_2": "BP 90125",
      "code_postal": "70003",
      "ville": "Vesoul Cedex",
      "lat": "47.638820",
      "lng": "6.154084"
    },
    {
      "region": "NORMANDIE",
      "title": "Agence de Villedieu-Les-Poêles",
      "adresse": "26, rue Jules Tétrel",
      "adresse_2": "BP 10",
      "code_postal": "50800",
      "ville": "Villedieu les Poêles",
      "lat": "48.83944006",
      "lng": "-1.224244313"
    },
    {
      "region": "AUVERGNE RHONE-ALPES",
      "title": "Agence de Villefranche",
      "adresse": "ZAC du Martelet",
      "adresse_2": "160 rue des Chantiers du Beaujolais",
      "code_postal": "69400",
      "ville": "Limas",
      "lat": "45.97568424",
      "lng": "4.718505802"
    },
    {
      "region": "SUD OUEST",
      "title": "Agence de Villenave d'Ornon",
      "adresse": "5 ter Avenue Roger Lapébie",
      "code_postal": "33140",
      "ville": "Villenave d'Ornon",
      "lat": "44.782325744628906",
      "lng": "-0.5883947014808655"
    },
    {
      "region": "NORMANDIE",
      "title": "Agence de Vire - Point C",
      "adresse": "14, rue Deslongrais",
      "code_postal": "14500",
      "ville": "Vire",
      "lat": "48.838175",
      "lng": "-0.889224"
    },
    {
      "region": "MEDITERRANEE",
      "title": "Agence de Vitrolles",
      "adresse": "2 impasse Descartes",
      "code_postal": "13127",
      "ville": "Vitrolles",
      "lat": "43.4469",
      "lng": "5.2348500000001"
    },
    {
      "region": "ALSACE - MOSELLE",
      "title": "Agence de Wissembourg",
      "adresse": "17, allées des Peupliers Altenstadt",
      "code_postal": "67160",
      "ville": "Wissembourg",
      "lat": "49.02794966",
      "lng": "7.96447404"
    },
    {
      "region": "DAUPHINE SAVOIE",
      "title": "Agence des Gets",
      "adresse": "889 rue du centre",
      "adresse_2": "Immeuble le Vorzay",
      "code_postal": "74260",
      "ville": "Les Gets",
      "lat": "46.1551",
      "lng": "6.66419"
    },
    {
      "region": "OUEST ATLANTIQUE",
      "title": "Agence des Herbiers",
      "adresse": "4 rue de l'Oiselière",
      "adresse_2": "ZAC de la Tibourgère",
      "adresse_3": "BP 60131",
      "code_postal": "85501",
      "ville": "Les Herbiers Cedex",
      "lat": "46.880918",
      "lng": "-1.011374"
    },
    {
      "region": "OUEST ATLANTIQUE",
      "title": "Agence des Sables d'Olonne",
      "adresse": "1 rue du Pinay",
      "adresse_2": "BP 10083 - Olonne sur Mer",
      "code_postal": "85103",
      "ville": "Les Sables D'Olonne Cedex",
      "lat": "46.50045686",
      "lng": "-1.779296815"
    }
  ]
}
